STARLINK-30973          
1 58713U 24002J   26068.66903906 -.00001638  00000+0 -43209-4 0  9994
2 58713  53.1592 229.9278 0001125  82.5186 277.5943 15.30180346122013
KUIPER-00208            
1 67775U 26030M   26068.67231509  .00043852  00000+0  13883-2 0  9994
2 67775  51.8846 219.6993 0015525  57.3146 302.9333 15.32208734  5080
