[{"OBJECT_NAME":"STARLINK-30973","OBJECT_ID":"2024-002J","EPOCH":"2026-03-09T16:03:24.974784","MEAN_MOTION":15.30180346,"ECCENTRICITY":0.00011247,"INCLINATION":53.1592,"RA_OF_ASC_NODE":229.9278,"ARG_OF_PERICENTER":82.5186,"MEAN_ANOMALY":277.5943,"EPHEMERIS_TYPE":0,"CLASSIFICATION_TYPE":"U","NORAD_CAT_ID":58713,"ELEMENT_SET_NO":999,"REV_AT_EPOCH":12201,"BSTAR":-4.3208601e-5,"MEAN_MOTION_DOT":-1.638e-5,"MEAN_MOTION_DDOT":0},{"OBJECT_NAME":"KUIPER-00208","OBJECT_ID":"2026-030M","EPOCH":"2026-03-09T16:08:08.024640","MEAN_MOTION":15.32208734,"ECCENTRICITY":0.00155248,"INCLINATION":51.8846,"RA_OF_ASC_NODE":219.6993,"ARG_OF_PERICENTER":57.3146,"MEAN_ANOMALY":302.9333,"EPHEMERIS_TYPE":0,"CLASSIFICATION_TYPE":"U","NORAD_CAT_ID":67775,"ELEMENT_SET_NO":999,"REV_AT_EPOCH":508,"BSTAR":0.0013882708,"MEAN_MOTION_DOT":0.00043852,"MEAN_MOTION_DDOT":0}]
